{"type": "FeatureCollection", "features": [ {"type": "Feature", "properties": {"norad_id": 31916, "name": "FENGYUN 1C DEB", "group": "fengyun-1c-debris", "lat": -48.50878151031396, "lon": -123.00960595466346, "alt_km": 844.0738294232988, "timestamp": "2025-12-08T19:31:49.093361+00:00", "meta": {"OBJECT_NAME": "FENGYUN 1C DEB", "OBJECT_ID": "1999-025CLT", "EPOCH": "2025-12-07T12:18:07.719840", "MEAN_MOTION": 14.32440747, "ECCENTRICITY": 0.01470771, "INCLINATION": 99.3305, "RA_OF_ASC_NODE": 66.3036, "ARG_OF_PERICENTER": 111.6445, "MEAN_ANOMALY": 250.0475, "EPHEMERIS_TYPE": 0, "CLASSIFICATION_TYPE": "U", "NORAD_CAT_ID": 31916, "ELEMENT_SET_NO": 999, "REV_AT_EPOCH": 64452, "BSTAR": 0.0024866504, "MEAN_MOTION_DOT": 7.544e-05, "MEAN_MOTION_DDOT": 0}, "tle": {"line1": "1 31916U 99025CLT 25341.51258935  .00007544  00000+0  24867-2 0  9996", "line2": "2 31916  99.3305  66.3036 0147077 111.6445 250.0475 14.32440747644523"}}, "geometry": {"type": "Point", "coordinates": [-123.00960595466346, -48.50878151031396]}}, {"type": "Feature", "properties": {"norad_id": 31917, "name": "FENGYUN 1C DEB", "group": "fengyun-1c-debris", "lat": 80.81362915322892, "lon": -138.89208883895137, "alt_km": 873.8082588366942, "timestamp": "2025-12-08T19:31:49.093371+00:00", "meta": {"OBJECT_NAME": "FENGYUN 1C DEB", "OBJECT_ID": "1999-025CLU", "EPOCH": "2025-12-08T05:48:46.536192", "MEAN_MOTION": 14.37587467, "ECCENTRICITY": 0.01893942, "INCLINATION": 98.3603, "RA_OF_ASC_NODE": 335.1413, "ARG_OF_PERICENTER": 306.9375, "MEAN_ANOMALY": 69.4379, "EPHEMERIS_TYPE": 0, "CLASSIFICATION_TYPE": "U", "NORAD_CAT_ID": 31917, "ELEMENT_SET_NO": 999, "REV_AT_EPOCH": 96357, "BSTAR": 0.0010720453, "MEAN_MOTION_DOT": 3.907e-05, "MEAN_MOTION_DDOT": 0}, "tle": {"line1": "1 31917U 99025CLU 25342.24220528  .00003907  00000+0  10720-2 0  9997", "line2": "2 31917  98.3603 335.1413 0189394 306.9375  69.4379 14.37587467963579"}}, "geometry": {"type": "Point", "coordinates": [-138.89208883895137, 80.81362915322892]}}, {"type": "Feature", "properties": {"norad_id": 31919, "name": "FENGYUN 1C DEB", "group": "fengyun-1c-debris", "lat": 14.162229003453366, "lon": -52.74156622195615, "alt_km": 696.1400650321302, "timestamp": "2025-12-08T19:31:49.093380+00:00", "meta": {"OBJECT_NAME": "FENGYUN 1C DEB", "OBJECT_ID": "1999-025CLW", "EPOCH": "2025-12-07T03:43:14.673216", "MEAN_MOTION": 14.45718281, "ECCENTRICITY": 0.01020338, "INCLINATION": 99.1017, "RA_OF_ASC_NODE": 123.1617, "ARG_OF_PERICENTER": 223.2307, "MEAN_ANOMALY": 315.1145, "EPHEMERIS_TYPE": 0, "CLASSIFICATION_TYPE": "U", "NORAD_CAT_ID": 31919, "ELEMENT_SET_NO": 999, "REV_AT_EPOCH": 97000, "BSTAR": 0.00092717578, "MEAN_MOTION_DOT": 3.448e-05, "MEAN_MOTION_DDOT": 0}, "tle": {"line1": "1 31919U 99025CLW 25341.15503094  .00003448  00000+0  92718-3 0  9998", "line2": "2 31919  99.1017 123.1617 0102033 223.2307 315.1145 14.45718281970008"}}, "geometry": {"type": "Point", "coordinates": [-52.74156622195615, 14.162229003453366]}}, {"type": "Feature", "properties": {"norad_id": 31921, "name": "FENGYUN 1C DEB", "group": "fengyun-1c-debris", "lat": 59.25266740170602, "lon": 71.32368652832376, "alt_km": 1111.154165603648, "timestamp": "2025-12-08T19:31:49.093389+00:00", "meta": {"OBJECT_NAME": "FENGYUN 1C DEB", "OBJECT_ID": "1999-025CLY", "EPOCH": "2025-11-28T10:59:40.701408", "MEAN_MOTION": 13.75221873, "ECCENTRICITY": 0.02030283, "INCLINATION": 99.3395, "RA_OF_ASC_NODE": 225.1205, "ARG_OF_PERICENTER": 302.7278, "MEAN_ANOMALY": 55.4443, "EPHEMERIS_TYPE": 0, "CLASSIFICATION_TYPE": "U", "NORAD_CAT_ID": 31921, "ELEMENT_SET_NO": 999, "REV_AT_EPOCH": 92110, "BSTAR": 0.0013372517, "MEAN_MOTION_DOT": 1.443e-05, "MEAN_MOTION_DDOT": 0}, "tle": {"line1": "1 31921U 99025CLY 25332.45810997  .00001443  00000+0  13373-2 0  9999", "line2": "2 31921  99.3395 225.1205 0203028 302.7278  55.4443 13.75221873921104"}}, "geometry": {"type": "Point", "coordinates": [71.32368652832376, 59.25266740170602]}}, {"type": "Feature", "properties": {"norad_id": 31922, "name": "FENGYUN 1C DEB", "group": "fengyun-1c-debris", "lat": -14.998043088791977, "lon": 152.08967363343152, "alt_km": 1054.6169128079591, "timestamp": "2025-12-08T19:31:49.093399+00:00", "meta": {"OBJECT_NAME": "FENGYUN 1C DEB", "OBJECT_ID": "1999-025CLZ", "EPOCH": "2025-12-07T22:05:45.138912", "MEAN_MOTION": 13.86574816, "ECCENTRICITY": 0.01615411, "INCLINATION": 98.8044, "RA_OF_ASC_NODE": 333.6286, "ARG_OF_PERICENTER": 39.4842, "MEAN_ANOMALY": 19.2361, "EPHEMERIS_TYPE": 0, "CLASSIFICATION_TYPE": "U", "NORAD_CAT_ID": 31922, "ELEMENT_SET_NO": 999, "REV_AT_EPOCH": 92950, "BSTAR": 0.0021118446, "MEAN_MOTION_DOT": 2.679e-05, "MEAN_MOTION_DDOT": 0}, "tle": {"line1": "1 31922U 99025CLZ 25341.92066133  .00002679  00000+0  21118-2 0  9995", "line2": "2 31922  98.8044 333.6286 0161541  39.4842  19.2361 13.86574816929507"}}, "geometry": {"type": "Point", "coordinates": [152.08967363343152, -14.998043088791977]}}, {"type": "Feature", "properties": {"norad_id": 31923, "name": "FENGYUN 1C DEB", "group": "fengyun-1c-debris", "lat": 67.02238680299409, "lon": -82.38563081280752, "alt_km": 1252.457368764085, "timestamp": "2025-12-08T19:31:49.093408+00:00", "meta": {"OBJECT_NAME": "FENGYUN 1C DEB", "OBJECT_ID": "1999-025CMA", "EPOCH": "2025-12-07T05:45:32.283936", "MEAN_MOTION": 13.54870138, "ECCENTRICITY": 0.02998306, "INCLINATION": 98.439, "RA_OF_ASC_NODE": 75.7726, "ARG_OF_PERICENTER": 318.1759, "MEAN_ANOMALY": 39.6815, "EPHEMERIS_TYPE": 0, "CLASSIFICATION_TYPE": "U", "NORAD_CAT_ID": 31923, "ELEMENT_SET_NO": 999, "REV_AT_EPOCH": 63560, "BSTAR": 0.0019569424, "MEAN_MOTION_DOT": 1.755e-05, "MEAN_MOTION_DDOT": 0}, "tle": {"line1": "1 31923U 99025CMA 25341.23995699  .00001755  00000+0  19569-2 0  9999", "line2": "2 31923  98.4390  75.7726 0299830 318.1759  39.6815 13.54870138635604"}}, "geometry": {"type": "Point", "coordinates": [-82.38563081280752, 67.02238680299409]}}, {"type": "Feature", "properties": {"norad_id": 31924, "name": "FENGYUN 1C DEB", "group": "fengyun-1c-debris", "lat": -70.60135302296237, "lon": -64.12579366789055, "alt_km": 1192.8627355000363, "timestamp": "2025-12-08T19:31:49.093418+00:00", "meta": {"OBJECT_NAME": "FENGYUN 1C DEB", "OBJECT_ID": "1999-025CMB", "EPOCH": "2025-12-06T09:58:46.050528", "MEAN_MOTION": 13.63882234, "ECCENTRICITY": 0.02732969, "INCLINATION": 98.4014, "RA_OF_ASC_NODE": 138.613, "ARG_OF_PERICENTER": 113.6676, "MEAN_ANOMALY": 249.3407, "EPHEMERIS_TYPE": 0, "CLASSIFICATION_TYPE": "U", "NORAD_CAT_ID": 31924, "ELEMENT_SET_NO": 999, "REV_AT_EPOCH": 91381, "BSTAR": 0.0024555476, "MEAN_MOTION_DOT": 2.479e-05, "MEAN_MOTION_DDOT": 0}, "tle": {"line1": "1 31924U 99025CMB 25340.41581077  .00002479  00000+0  24555-2 0  9995", "line2": "2 31924  98.4014 138.6130 0273296 113.6676 249.3407 13.63882234913819"}}, "geometry": {"type": "Point", "coordinates": [-64.12579366789055, -70.60135302296237]}}, {"type": "Feature", "properties": {"norad_id": 31926, "name": "FENGYUN 1C DEB", "group": "fengyun-1c-debris", "lat": 78.0652799193995, "lon": -53.79974043601531, "alt_km": 809.2339280256701, "timestamp": "2025-12-08T19:31:49.093427+00:00", "meta": {"OBJECT_NAME": "FENGYUN 1C DEB", "OBJECT_ID": "1999-025CMD", "EPOCH": "2025-12-08T05:38:37.497408", "MEAN_MOTION": 14.30640099, "ECCENTRICITY": 0.00387541, "INCLINATION": 98.9581, "RA_OF_ASC_NODE": 77.3361, "ARG_OF_PERICENTER": 266.0982, "MEAN_ANOMALY": 93.5768, "EPHEMERIS_TYPE": 0, "CLASSIFICATION_TYPE": "U", "NORAD_CAT_ID": 31926, "ELEMENT_SET_NO": 999, "REV_AT_EPOCH": 95163, "BSTAR": 0.0032954446, "MEAN_MOTION_DOT": 8.643e-05, "MEAN_MOTION_DDOT": 0}, "tle": {"line1": "1 31926U 99025CMD 25342.23515622  .00008643  00000+0  32954-2 0  9993", "line2": "2 31926  98.9581  77.3361 0038754 266.0982  93.5768 14.30640099951638"}}, "geometry": {"type": "Point", "coordinates": [-53.79974043601531, 78.0652799193995]}}, {"type": "Feature", "properties": {"norad_id": 31929, "name": "FENGYUN 1C DEB", "group": "fengyun-1c-debris", "lat": 43.89541734850761, "lon": -59.344881671420715, "alt_km": 751.7835900832606, "timestamp": "2025-12-08T19:31:49.093436+00:00", "meta": {"OBJECT_NAME": "FENGYUN 1C DEB", "OBJECT_ID": "1999-025CME", "EPOCH": "2025-12-06T01:38:29.518080", "MEAN_MOTION": 14.34908264, "ECCENTRICITY": 0.00745832, "INCLINATION": 98.7915, "RA_OF_ASC_NODE": 109.2976, "ARG_OF_PERICENTER": 74.8463, "MEAN_ANOMALY": 286.0955, "EPHEMERIS_TYPE": 0, "CLASSIFICATION_TYPE": "U", "NORAD_CAT_ID": 31929, "ELEMENT_SET_NO": 999, "REV_AT_EPOCH": 70550, "BSTAR": 0.00079666919, "MEAN_MOTION_DOT": 2.292e-05, "MEAN_MOTION_DDOT": 0}, "tle": {"line1": "1 31929U 99025CME 25340.06839720  .00002292  00000+0  79667-3 0  9990", "line2": "2 31929  98.7915 109.2976 0074583  74.8463 286.0955 14.34908264705501"}}, "geometry": {"type": "Point", "coordinates": [-59.344881671420715, 43.89541734850761]}}, {"type": "Feature", "properties": {"norad_id": 31931, "name": "FENGYUN 1C DEB", "group": "fengyun-1c-debris", "lat": 76.86843599013338, "lon": 150.20046448485434, "alt_km": 1408.9596685870474, "timestamp": "2025-12-08T19:31:49.093445+00:00", "meta": {"OBJECT_NAME": "FENGYUN 1C DEB", "OBJECT_ID": "1999-025CMG", "EPOCH": "2025-12-08T02:54:38.657664", "MEAN_MOTION": 13.42606691, "ECCENTRICITY": 0.04234013, "INCLINATION": 97.8131, "RA_OF_ASC_NODE": 293.6089, "ARG_OF_PERICENTER": 281.6721, "MEAN_ANOMALY": 73.7205, "EPHEMERIS_TYPE": 0, "CLASSIFICATION_TYPE": "U", "NORAD_CAT_ID": 31931, "ELEMENT_SET_NO": 999, "REV_AT_EPOCH": 65160, "BSTAR": 0.0018287919, "MEAN_MOTION_DOT": 1.733e-05, "MEAN_MOTION_DDOT": 0}, "tle": {"line1": "1 31931U 99025CMG 25342.12128076  .00001733  00000+0  18288-2 0  9997", "line2": "2 31931  97.8131 293.6089 0423401 281.6721  73.7205 13.42606691651606"}}, "geometry": {"type": "Point", "coordinates": [150.20046448485434, 76.86843599013338]}}]}